NORAD_CAT_ID,OBJECT_NAME,OBJECT_TYPE,EPOCH,MEAN_MOTION,ECCENTRICITY,INCLINATION,RA_OF_ASC_NODE,ARG_OF_PERICENTER,MEAN_ANOMALY,BSTAR,MEAN_MOTION_DOT,MEAN_MOTION_DDOT,TLE_LINE0,TLE_LINE1,TLE_LINE2,SEMIMAJOR_AXIS,PERIOD,APOGEE,PERIGEE,DECAYED
52701.0,STARLINK-4003,PAYLOAD,2022-09-11 20:00:01,15.08850715,0.0001689,53.2152,97.1757,52.6444,329.5083,-0.00066786,-0.00010905,0.0,0 STARLINK-4003,1 52701U 22053AX  22254.83334491 -.00010905  00000-0 -66786-3 0  9990,2 52701  53.2152  97.1757 0001689  52.6444 329.5083 15.08850715 18425,6917.848000000001,95.437,540.881,538.544,0.0
52701.0,STARLINK-4003,PAYLOAD,2022-09-11 22:00:00,15.08838295,0.0001720999999999,53.2154,96.8019,51.6404,63.4165,0.0011144,0.00017491,0.0,0 STARLINK-4003,1 52701U 22053AX  22254.91667824  .00017491  00000-0  11144-2 0  9990,2 52701  53.2154  96.8019 0001721  51.6404  63.4165 15.08838295  1309,6917.886,95.438,540.941,538.56,0.0
52701.0,STARLINK-4003,PAYLOAD,2022-09-12 14:00:01,15.08839426,0.0001727,53.2158,93.8069,60.0638,78.1991,0.00093813,0.00014674,0.0,0 STARLINK-4003,1 52701U 22053AX  22255.58334491  .00014674  00000-0  93813-3 0  9999,2 52701  53.2158  93.8069 0001727  60.0638  78.1991 15.08839426  1301,6917.882,95.438,540.942,538.552,0.0
52701.0,STARLINK-4003,PAYLOAD,2022-09-12 22:00:00,15.0883258,0.0001867,53.2159,92.3122,52.7955,97.0721,0.0019394,0.00030706,0.0,0 STARLINK-4003,1 52701U 22053AX  22255.91667824  .00030706  00000-0  19394-2 0  9990,2 52701  53.2159  92.3122 0001867  52.7955  97.0721 15.08832580 18595,6917.903,95.438,541.06,538.476,0.0
52701.0,STARLINK-4003,PAYLOAD,2022-09-13 14:00:01,15.08845948,0.0001665999999999,53.2165,89.3176,57.64,115.4338,0.00069382,0.00010773,0.0,0 STARLINK-4003,1 52701U 22053AX  22256.58334491  .00010773  00000-0  69382-3 0  9990,2 52701  53.2165  89.3176 0001666  57.6400 115.4338 15.08845948  1305,6917.861999999999,95.437,540.88,538.575,0.0
52701.0,STARLINK-4003,PAYLOAD,2022-09-13 16:00:00,15.08857053,0.0001683,53.2166,88.9434,55.8325,210.1398,-0.00072059,-0.00011743,0.0,0 STARLINK-4003,1 52701U 22053AX  22256.66667824 -.00011743  00000-0 -72059-3 0  9993,2 52701  53.2166  88.9434 0001683  55.8325 210.1398 15.08857053 18704,6917.828,95.436,540.8580000000002,538.529,0.0
52701.0,STARLINK-4003,PAYLOAD,2022-09-13 22:00:00,15.08840765,0.0001793,53.2166,87.8228,49.7579,134.9171,0.00015359,2.157e-05,0.0,0 STARLINK-4003,1 52701U 22053AX  22256.91667824  .00002157  00000-0  15359-3 0  9998,2 52701  53.2166  87.8228 0001793  49.7579 134.9171 15.08840765  1300,6917.878000000002,95.438,540.9830000000002,538.503,0.0
52701.0,STARLINK-4003,PAYLOAD,2022-09-14 14:00:01,15.08839705,0.0001581,53.2171,84.8285,55.5398,152.3052,0.00017894,2.561e-05,0.0,0 STARLINK-4003,1 52701U 22053AX  22257.58334491  .00002561  00000-0  17894-3 0  9998,2 52701  53.2171  84.8285 0001581  55.5398 152.3052 15.08839705  1309,6917.880999999999,95.438,540.84,538.653,0.0
52701.0,STARLINK-4003,PAYLOAD,2022-09-14 22:00:00,15.08825278,0.0001771,53.217,83.3337,48.6147,170.83,0.0017731,0.00028032,0.0,0 STARLINK-4003,1 52701U 22053AX  22257.91667824  .00028032  00000-0  17731-2 0  9994,2 52701  53.2170  83.3337 0001771  48.6147 170.8300 15.08825278 18899,6917.925,95.438,541.016,538.565,0.0
52701.0,STARLINK-4003,PAYLOAD,2022-09-15 06:00:00,15.08819748,0.0001494,53.2172,81.8333,47.6407,183.3827,-0.00021449,-3.698e-05,0.0,0 STARLINK-4003,1 52701U 22053AX  22258.25001157 -.00003698  00000-0 -21449-3 0  9998,2 52701  53.2172  81.8333 0001494  47.6407 183.3827 15.08819748 18944,6917.941999999999,95.439,540.841,538.774,0.0
52701.0,STARLINK-4003,PAYLOAD,2022-09-15 14:00:01,15.08834402,0.0001457,53.2173,80.3397,52.5383,190.0455,-0.0002005,-3.477e-05,0.0,0 STARLINK-4003,1 52701U 22053AX  22258.58334491 -.00003477  00000-0 -20050-3 0  9996,2 52701  53.2173  80.3397 0001457  52.5383 190.0455 15.08834402  1304,6917.897,95.438,540.77,538.755,0.0
52701.0,STARLINK-4003,PAYLOAD,2022-09-15 19:17:19,15.08829291,0.000166,53.2178,79.3518,47.5375,312.5757,-7.5993e-05,-1.497e-05,0.0,0 STARLINK-4003,1 52701U 22053AX  22258.80369489 -.00001497  00000-0 -75993-4 0  9993,2 52701  53.2178  79.3518 0001660  47.5375 312.5757 15.08829291 19454,6917.913000000001,95.438,540.9259999999998,538.63,0.0
52701.0,STARLINK-4003,PAYLOAD,2022-09-16 06:25:00,15.08912188,0.0001215,53.2176,77.2697,38.9178,321.1901,-0.00095795,-0.00015531,0.0,0 STARLINK-4003,1 52701U 22053AX  22259.26736896 -.00015531  00000-0 -95795-3 0  9999,2 52701  53.2176  77.2697 0001215  38.9178 321.1901 15.08912188 19093,6917.66,95.433,540.365,538.684,0.0
52701.0,STARLINK-4003,PAYLOAD,2022-09-16 14:21:56,15.08832613,0.0001575999999999,53.2177,75.7829,47.5217,312.5908,7.6551e-05,9.3e-06,0.0,0 STARLINK-4003,1 52701U 22053AX  22259.59857180  .00000930  00000-0  76551-4 0  9990,2 52701  53.2177  75.7829 0001576  47.5217 312.5908 15.08832613 19145,6917.903,95.438,540.8580000000002,538.678,0.0
52701.0,STARLINK-4003,PAYLOAD,2022-09-17 11:01:56,15.08841026,0.0001549,53.2178,71.9168,47.4965,312.6157,0.00017946,2.569e-05,0.0,0 STARLINK-4003,1 52701U 22053AX  22260.45968385  .00002569  00000-0  17946-3 0  9999,2 52701  53.2178  71.9168 0001549  47.4965 312.6157 15.08841026 19278,6917.877,95.437,540.814,538.6709999999998,0.0
52701.0,STARLINK-4003,PAYLOAD,2022-09-17 18:58:52,15.08841426,0.000167,53.2177,70.43,42.5096,317.6026,0.00016938,2.409e-05,0.0,0 STARLINK-4003,1 52701U 22053AX  22260.79088378  .00002409  00000-0  16938-3 0  9994,2 52701  53.2177  70.4300 0001670  42.5096 317.6026 15.08841426 19752,6917.876,95.437,540.896,538.586,0.0
52701.0,STARLINK-4003,PAYLOAD,2022-09-18 10:52:43,15.08844963,0.0001717,53.2183,67.4575,50.6516,309.4628,2.7512e-05,1.5e-06,0.0,0 STARLINK-4003,1 52701U 22053AX  22261.45328637  .00000150  00000-0  27512-4 0  9995,2 52701  53.2183  67.4575 0001717  50.6516 309.4628 15.08844963 19855,6917.865,95.437,540.918,538.5419999999998,0.0
52701.0,STARLINK-4003,PAYLOAD,2022-09-18 18:49:39,15.08851721,0.000166,53.218,65.9696,50.0808,310.033,5.1416e-05,5.31e-06,0.0,0 STARLINK-4003,1 52701U 22053AX  22261.78447966  .00000531  00000-0  51416-4 0  9991,2 52701  53.2180  65.9696 0001660  50.0808 310.0330 15.08851721 19470,6917.845,95.437,540.8580000000002,538.561,0.0
52701.0,STARLINK-4003,PAYLOAD,2022-09-19 10:43:31,15.08844364,0.0001843,53.2186,62.997,47.6481,312.4667,-6.7747e-05,-1.366e-05,0.0,0 STARLINK-4003,1 52701U 22053AX  22262.44688699 -.00001366  00000-0 -67747-4 0  9998,2 52701  53.2186  62.9970 0001843  47.6481 312.4667 15.08844364 19575,6917.8669999999975,95.437,541.007,538.457,0.0
52701.0,STARLINK-4003,PAYLOAD,2022-09-19 17:05:03,15.08846722,0.0001784,53.2179,61.8067,50.977,309.1381,-4.4398e-05,-9.95e-06,0.0,0 STARLINK-4003,1 52701U 22053AX  22262.71184330 -.00000995  00000-0 -44398-4 0  9995,2 52701  53.2179  61.8067 0001784  50.9770 309.1381 15.08846722 20044,6917.86,95.437,540.9590000000002,538.491,0.0
52701.0,STARLINK-4003,PAYLOAD,2022-09-20 13:45:03,15.08843776,0.0001785,53.2179,57.9405,55.4855,304.6305,-3.9989e-06,-3.52e-06,0.0,0 STARLINK-4003,1 52701U 22053AX  22263.57296190 -.00000352  00000-0 -39989-5 0  9996,2 52701  53.2179  57.9405 0001785  55.4855 304.6305 15.08843776 20177,6917.869000000002,95.437,540.969,538.499,0.0
52701.0,STARLINK-4003,PAYLOAD,2022-09-21 12:00:28,15.08834236,0.0001771999999999,53.2177,53.7766,60.904,299.2129,-3.857300000000001e-05,-9.02e-06,0.0,0 STARLINK-4003,1 52701U 22053AX  22264.50032737 -.00000902  00000-0 -38573-4 0  9993,2 52701  53.2177  53.7766 0001772  60.9040 299.2129 15.08834236 19882,6917.898,95.438,540.989,538.5369999999998,0.0
52701.0,STARLINK-4003,PAYLOAD,2022-09-22 13:26:38,15.08837391,0.0001748,53.2188,49.0209,45.2539,314.8595,-9.0372e-06,-4.32e-06,0.0,0 STARLINK-4003,1 52701U 22053AX  22265.56016588 -.00000432  00000-0 -90372-5 0  9990,2 52701  53.2188  49.0209 0001748  45.2539 314.8595 15.08837391 20479,6917.888000000001,95.438,540.9630000000002,538.544,0.0
52701.0,STARLINK-4003,PAYLOAD,2022-09-22 16:37:24,15.08833691,0.0001524,53.2187,48.4255,48.9561,311.1563,-3.2889e-05,-8.11e-06,0.0,0 STARLINK-4003,1 52701U 22053AX  22265.69264844 -.00000811  00000-0 -32889-4 0  9993,2 52701  53.2187  48.4255 0001524  48.9561 311.1563 15.08833691 20495,6917.9,95.438,540.819,538.71,0.0
52701.0,STARLINK-4003,PAYLOAD,2022-09-23 13:17:26,15.08821694,0.0001855,53.218,44.5586,46.9872,313.1275,-3.3414e-05,-8.2e-06,0.0,0 STARLINK-4003,1 52701U 22053AX  22266.55378034 -.00000820  00000-0 -33414-4 0  9991,2 52701  53.2180  44.5586 0001855  46.9872 313.1275 15.08821694 20629,6917.936,95.439,541.085,538.518,0.0
52701.0,STARLINK-4003,PAYLOAD,2022-09-23 16:28:12,15.08821525,0.0001826,53.218,43.9637,47.7748,312.3399,-3.4455e-05,-8.36e-06,0.0,0 STARLINK-4003,1 52701U 22053AX  22266.68626157 -.00000836  00000-0 -34455-4 0  9990,2 52701  53.2180  43.9637 0001826  47.7748 312.3399 15.08821525 20214,6917.937,95.439,541.065,538.539,0.0
52701.0,STARLINK-4003,PAYLOAD,2022-09-24 11:32:50,15.08831012,0.000188,53.219,40.3968,47.8689,312.2462,4.6212e-05,4.47e-06,0.0,0 STARLINK-4003,1 52701U 22053AX  22267.48113834  .00000447  00000-0  46212-4 0  9992,2 52701  53.2190  40.3968 0001880  47.8689 312.2462 15.08831012 20333,6917.908,95.438,541.073,538.472,0.0
52701.0,STARLINK-4003,PAYLOAD,2022-09-24 13:08:13,15.08832617,0.0001892,53.219,40.0994,46.7421,313.3729,6.8855e-05,8.08e-06,0.0,0 STARLINK-4003,1 52701U 22053AX  22267.54737703  .00000808  00000-0  68855-4 0  9994,2 52701  53.2190  40.0994 0001892  46.7421 313.3729 15.08832617 20772,6917.903,95.438,541.077,538.4590000000002,0.0
52701.0,STARLINK-4003,PAYLOAD,2022-09-24 16:18:59,15.08838509,0.0001891,53.219,39.5048,47.2666,312.8486,0.00010109,1.321e-05,0.0,0 STARLINK-4003,1 52701U 22053AX  22267.67985314  .00001321  00000-0  10109-3 0  9990,2 52701  53.2190  39.5048 0001891  47.2666 312.8486 15.08838509 20793,6917.885,95.438,541.058,538.442,0.0
